[{"OBJECT_NAME":"OBJECT Y","OBJECT_ID":"2023-085Y","EPOCH":"2026-03-09T22:38:54.992256","MEAN_MOTION":15.32500153,"ECCENTRICITY":0.00063298,"INCLINATION":97.4849,"RA_OF_ASC_NODE":180.8653,"ARG_OF_PERICENTER":67.4431,"MEAN_ANOMALY":292.748,"EPHEMERIS_TYPE":0,"CLASSIFICATION_TYPE":"U","NORAD_CAT_ID":57026,"ELEMENT_SET_NO":999,"REV_AT_EPOCH":15160,"BSTAR":0.00065512761,"MEAN_MOTION_DOT":0.00020524,"MEAN_MOTION_DDOT":0},{"OBJECT_NAME":"STARLINK-34145","OBJECT_ID":"2025-110Q","EPOCH":"2026-03-09T06:04:14.460096","MEAN_MOTION":15.30190973,"ECCENTRICITY":0.00012115,"INCLINATION":53.1599,"RA_OF_ASC_NODE":28.9353,"ARG_OF_PERICENTER":83.6813,"MEAN_ANOMALY":276.4326,"EPHEMERIS_TYPE":0,"CLASSIFICATION_TYPE":"U","NORAD_CAT_ID":64110,"ELEMENT_SET_NO":999,"REV_AT_EPOCH":4581,"BSTAR":0.0011312018,"MEAN_MOTION_DOT":0.00033285,"MEAN_MOTION_DDOT":0}]
